start=new Date('2022-10-11T00:00:00.000Z').valueOf();
sats=[{"SITE":"AFETR","NORAD_CAT_ID":"45098","TLE_LINE2":"2 45098  53.0556  79.9884 0001133  88.9195 271.1924 15.06393833149220","OBJECT_NAME":"STARLINK-1184","DECAY_DATE":null,"MEAN_ANOMALY":"271.1924","FILE":"3601747","TIME_SYSTEM":"UTC","SEMIMAJOR_AXIS":"6925.367","ARG_OF_PERICENTER":"88.9195","MEAN_MOTION_DOT":"0.00000209","LAUNCH_DATE":"2020-01-29","PERIAPSIS":"546.448","OBJECT_TYPE":"PAYLOAD","OBJECT_ID":"2020-006BG","GP_ID":"214715077","REF_FRAME":"TEME","APOAPSIS":"548.017","BSTAR":"0.00003289400000","CLASSIFICATION_TYPE":"U","PERIOD":"95.593","COUNTRY_CODE":"US","ELEMENT_SET_NO":"999","RCS_SIZE":"LARGE","INCLINATION":"53.0556","MEAN_MOTION_DDOT":"0.0000000000000","MEAN_MOTION":"15.06393833","EPHEMERIS_TYPE":"0","TLE_LINE1":"1 45098U 20006BG  22283.71924131  .00000209  00000-0  32894-4 0  9990","EPOCH":"2022-10-10T17:15:42.449184","ECCENTRICITY":"0.00011330","REV_AT_EPOCH":"14922","RA_OF_ASC_NODE":"79.9884","CENTER_NAME":"EARTH","MEAN_ELEMENT_THEORY":"SGP4"},{"EPHEMERIS_TYPE":"0","MEAN_MOTION":"15.06395999","MEAN_MOTION_DDOT":"0.0000000000000","INCLINATION":"53.0548","RCS_SIZE":"LARGE","ELEMENT_SET_NO":"999","COUNTRY_CODE":"US","PERIOD":"95.592","TLE_LINE1":"1 45099U 20006BH  22283.55336934  .00001601  00000-0  12635-3 0  9998","CENTER_NAME":"EARTH","RA_OF_ASC_NODE":"80.7531","REV_AT_EPOCH":"14920","ECCENTRICITY":"0.00012800","EPOCH":"2022-10-10T13:16:51.110976","MEAN_ELEMENT_THEORY":"SGP4","OBJECT_NAME":"STARLINK-1186","TLE_LINE2":"2 45099  53.0548  80.7531 0001280  81.9036 278.2099 15.06395999149205","SITE":"AFETR","NORAD_CAT_ID":"45099","TIME_SYSTEM":"UTC","SEMIMAJOR_AXIS":"6925.361","FILE":"3601747","MEAN_ANOMALY":"278.2099","DECAY_DATE":null,"OBJECT_TYPE":"PAYLOAD","LAUNCH_DATE":"2020-01-29","PERIAPSIS":"546.339","MEAN_MOTION_DOT":"0.00001601","ARG_OF_PERICENTER":"81.9036","CLASSIFICATION_TYPE":"U","BSTAR":"0.00012635000000","APOAPSIS":"548.112","REF_FRAME":"TEME","GP_ID":"214713846","OBJECT_ID":"2020-006BH"},{"COUNTRY_CODE":"US","PERIOD":"95.592","EPHEMERIS_TYPE":"0","MEAN_MOTION":"15.06404253","MEAN_MOTION_DDOT":"0.0000000000000","INCLINATION":"53.0536","RCS_SIZE":"LARGE","ELEMENT_SET_NO":"999","TLE_LINE1":"1 45100U 20006BJ  22283.84824566  .00003154  00000-0  23049-3 0  9992","ECCENTRICITY":"0.00014940","EPOCH":"2022-10-10T20:21:28.425024","CENTER_NAME":"EARTH","RA_OF_ASC_NODE":"79.4267","REV_AT_EPOCH":"14924","MEAN_ELEMENT_THEORY":"SGP4","SITE":"AFETR","NORAD_CAT_ID":"45100","OBJECT_NAME":"STARLINK-1193","TLE_LINE2":"2 45100  53.0536  79.4267 0001494  77.2995 282.8160 15.06404253149243","FILE":"3601747","DECAY_DATE":null,"MEAN_ANOMALY":"282.8160","TIME_SYSTEM":"UTC","SEMIMAJOR_AXIS":"6925.336","ARG_OF_PERICENTER":"77.2995","OBJECT_TYPE":"PAYLOAD","PERIAPSIS":"546.166","LAUNCH_DATE":"2020-01-29","MEAN_MOTION_DOT":"0.00003154","APOAPSIS":"548.235","REF_FRAME":"TEME","GP_ID":"214714595","OBJECT_ID":"2020-006BJ","CLASSIFICATION_TYPE":"U","BSTAR":"0.00023049000000"},{"ELEMENT_SET_NO":"999","RCS_SIZE":"LARGE","MEAN_MOTION_DDOT":"0.0000000000000","INCLINATION":"53.0551","EPHEMERIS_TYPE":"0","MEAN_MOTION":"15.06404966","PERIOD":"95.592","COUNTRY_CODE":"US","TLE_LINE1":"1 45101U 20006BK  22283.84360938  .00001567  00000-0  12405-3 0  9991","REV_AT_EPOCH":"14924","RA_OF_ASC_NODE":"79.4196","CENTER_NAME":"EARTH","EPOCH":"2022-10-10T20:14:47.850432","ECCENTRICITY":"0.00011190","MEAN_ELEMENT_THEORY":"SGP4","TLE_LINE2":"2 45101  53.0551  79.4196 0001119  83.7750 276.3366 15.06404966149244","OBJECT_NAME":"STARLINK-1194","SITE":"AFETR","NORAD_CAT_ID":"45101","TIME_SYSTEM":"UTC","SEMIMAJOR_AXIS":"6925.333","DECAY_DATE":null,"MEAN_ANOMALY":"276.3366","FILE":"3601747","MEAN_MOTION_DOT":"0.00001567","PERIAPSIS":"546.423","LAUNCH_DATE":"2020-01-29","OBJECT_TYPE":"PAYLOAD","ARG_OF_PERICENTER":"83.7750","BSTAR":"0.00012405000000","CLASSIFICATION_TYPE":"U","GP_ID":"214714846","OBJECT_ID":"2020-006BK","REF_FRAME":"TEME","APOAPSIS":"547.973"},{"MEAN_ELEMENT_THEORY":"SGP4","CENTER_NAME":"EARTH","RA_OF_ASC_NODE":"79.9288","REV_AT_EPOCH":"14922","ECCENTRICITY":"0.00012860","EPOCH":"2022-10-10T17:36:56.542464","TLE_LINE1":"1 45102U 20006BL  22283.73398776 -.00000025  00000-0  17240-4 0  9993","EPHEMERIS_TYPE":"0","MEAN_MOTION":"15.06389569","MEAN_MOTION_DDOT":"0.0000000000000","INCLINATION":"53.0554","RCS_SIZE":"LARGE","ELEMENT_SET_NO":"999","COUNTRY_CODE":"US","PERIOD":"95.593","CLASSIFICATION_TYPE":"U","BSTAR":"0.00001724000000","APOAPSIS":"548.136","REF_FRAME":"TEME","OBJECT_ID":"2020-006BL","GP_ID":"214715578","OBJECT_TYPE":"PAYLOAD","PERIAPSIS":"546.355","LAUNCH_DATE":"2020-01-29","MEAN_MOTION_DOT":"-0.00000025","ARG_OF_PERICENTER":"87.5262","TIME_SYSTEM":"UTC","SEMIMAJOR_AXIS":"6925.381","FILE":"3601747","DECAY_DATE":null,"MEAN_ANOMALY":"272.5874","OBJECT_NAME":"STARLINK-1195","TLE_LINE2":"2 45102  53.0554  79.9288 0001286  87.5262 272.5874 15.06389569149221","NORAD_CAT_ID":"45102","SITE":"AFETR"},{"FILE":"3601747","DECAY_DATE":null,"MEAN_ANOMALY":"256.7136","TIME_SYSTEM":"UTC","SEMIMAJOR_AXIS":"6925.197","SITE":"AFETR","NORAD_CAT_ID":"45103","TLE_LINE2":"2 45103  53.0536  79.4759 0001387 103.4007 256.7136 15.06449473149245","OBJECT_NAME":"STARLINK-1196","APOAPSIS":"548.022","GP_ID":"214714345","OBJECT_ID":"2020-006BM","REF_FRAME":"TEME","BSTAR":"0.00077461000000","CLASSIFICATION_TYPE":"U","ARG_OF_PERICENTER":"103.4007","LAUNCH_DATE":"2020-01-29","PERIAPSIS":"546.101","OBJECT_TYPE":"PAYLOAD","MEAN_MOTION_DOT":"0.00011290","TLE_LINE1":"1 45103U 20006BM  22283.83250601  .00011290  00000-0  77461-3 0  9994","COUNTRY_CODE":"US","PERIOD":"95.589","MEAN_MOTION_DDOT":"0.0000000000000","INCLINATION":"53.0536","EPHEMERIS_TYPE":"0","MEAN_MOTION":"15.06449473","ELEMENT_SET_NO":"999","RCS_SIZE":"LARGE","MEAN_ELEMENT_THEORY":"SGP4","ECCENTRICITY":"0.00013870","EPOCH":"2022-10-10T19:58:48.519264","CENTER_NAME":"EARTH","REV_AT_EPOCH":"14924","RA_OF_ASC_NODE":"79.4759"},{"INCLINATION":"53.0520","MEAN_MOTION_DDOT":"0.0000000000000","MEAN_MOTION":"15.06404076","EPHEMERIS_TYPE":"0","ELEMENT_SET_NO":"999","RCS_SIZE":"LARGE","COUNTRY_CODE":"US","PERIOD":"95.592","TLE_LINE1":"1 45178U 20012A   22283.28798017  .00001677  00000-0  13145-3 0  9997","CENTER_NAME":"EARTH","REV_AT_EPOCH":"14632","RA_OF_ASC_NODE":"241.9422","ECCENTRICITY":"0.00014660","EPOCH":"2022-10-10T06:54:41.486688","MEAN_ELEMENT_THEORY":"SGP4","TLE_LINE2":"2 45178  53.0520 241.9422 0001466  71.1097 289.0051 15.06404076146322","OBJECT_NAME":"STARLINK-1138","NORAD_CAT_ID":"45178","SITE":"AFETR","SEMIMAJOR_AXIS":"6925.336","TIME_SYSTEM":"UTC","FILE":"3600390","DECAY_DATE":null,"MEAN_ANOMALY":"289.0051","PERIAPSIS":"546.186","LAUNCH_DATE":"2020-02-17","OBJECT_TYPE":"PAYLOAD","MEAN_MOTION_DOT":"0.00001677","ARG_OF_PERICENTER":"71.1097","BSTAR":"0.00013145000000","CLASSIFICATION_TYPE":"U","APOAPSIS":"548.216","GP_ID":"214640931","OBJECT_ID":"2020-012A","REF_FRAME":"TEME"},{"OBJECT_NAME":"STARLINK-1143","TLE_LINE2":"2 45179  53.0555 240.4274 0001471  69.5985 290.5162 15.06408127147022","SITE":"AFETR","NORAD_CAT_ID":"45179","SEMIMAJOR_AXIS":"6925.324","TIME_SYSTEM":"UTC","DECAY_DATE":null,"MEAN_ANOMALY":"290.5162","FILE":"3601747","MEAN_MOTION_DOT":"0.00002356","LAUNCH_DATE":"2020-02-17","PERIAPSIS":"546.170","OBJECT_TYPE":"PAYLOAD","ARG_OF_PERICENTER":"69.5985","BSTAR":"0.00017694000000","CLASSIFICATION_TYPE":"U","GP_ID":"214714103","OBJECT_ID":"2020-012B","REF_FRAME":"TEME","APOAPSIS":"548.207","ELEMENT_SET_NO":"999","RCS_SIZE":"LARGE","MEAN_MOTION_DDOT":"0.0000000000000","INCLINATION":"53.0555","MEAN_MOTION":"15.06408127","EPHEMERIS_TYPE":"0","PERIOD":"95.592","COUNTRY_CODE":"US","TLE_LINE1":"1 45179U 20012B   22283.62245054  .00002356  00000-0  17694-3 0  9992","REV_AT_EPOCH":"14702","RA_OF_ASC_NODE":"240.4274","CENTER_NAME":"EARTH","EPOCH":"2022-10-10T14:56:19.726656","ECCENTRICITY":"0.00014710","MEAN_ELEMENT_THEORY":"SGP4"},{"CENTER_NAME":"EARTH","RA_OF_ASC_NODE":"237.6295","REV_AT_EPOCH":"14702","ECCENTRICITY":"0.00027560","EPOCH":"2022-10-10T03:35:54.098880","MEAN_ELEMENT_THEORY":"SGP4","EPHEMERIS_TYPE":"0","MEAN_MOTION":"15.12625739","MEAN_MOTION_DDOT":"0.0000000000000","INCLINATION":"53.0505","RCS_SIZE":"LARGE","ELEMENT_SET_NO":"999","COUNTRY_CODE":"US","PERIOD":"95.199","TLE_LINE1":"1 45180U 20012C   22283.14993170  .00044441  00000-0  25157-2 0  9993","OBJECT_TYPE":"PAYLOAD","LAUNCH_DATE":"2020-02-17","PERIAPSIS":"526.295","MEAN_MOTION_DOT":"0.00044441","ARG_OF_PERICENTER":"68.1141","CLASSIFICATION_TYPE":"U","BSTAR":"0.00251570000000","APOAPSIS":"530.101","REF_FRAME":"TEME","OBJECT_ID":"2020-012C","GP_ID":"214672836","TLE_LINE2":"2 45180  53.0505 237.6295 0002756  68.1141 292.0143 15.12625739147029","OBJECT_NAME":"STARLINK-1192","NORAD_CAT_ID":"45180","SITE":"AFETR","SEMIMAJOR_AXIS":"6906.333","TIME_SYSTEM":"UTC","FILE":"3600948","DECAY_DATE":null,"MEAN_ANOMALY":"292.0143"},{"GP_ID":"214715085","OBJECT_ID":"2020-012D","REF_FRAME":"TEME","APOAPSIS":"548.331","BSTAR":"0.00015401000000","CLASSIFICATION_TYPE":"U","ARG_OF_PERICENTER":"70.7737","MEAN_MOTION_DOT":"0.00002013","LAUNCH_DATE":"2020-02-17","PERIAPSIS":"546.116","OBJECT_TYPE":"PAYLOAD","DECAY_DATE":null,"MEAN_ANOMALY":"289.3424","FILE":"3601747","SEMIMAJOR_AXIS":"6925.359","TIME_SYSTEM":"UTC","NORAD_CAT_ID":"45181","SITE":"AFETR","OBJECT_NAME":"STARLINK-1200","TLE_LINE2":"2 45181  53.0523 239.3133 0001599  70.7737 289.3424 15.06396695147068","MEAN_ELEMENT_THEORY":"SGP4","EPOCH":"2022-10-10T20:58:37.708320","ECCENTRICITY":"0.00015990","REV_AT_EPOCH":"14706","RA_OF_ASC_NODE":"239.3133","CENTER_NAME":"EARTH","TLE_LINE1":"1 45181U 20012D   22283.87404755  .00002013  00000-0  15401-3 0  9991","PERIOD":"95.592","COUNTRY_CODE":"US","ELEMENT_SET_NO":"999","RCS_SIZE":"LARGE","MEAN_MOTION_DDOT":"0.0000000000000","INCLINATION":"53.0523","EPHEMERIS_TYPE":"0","MEAN_MOTION":"15.06396695"}];
